NORAD_CAT_ID,OBJECT_NAME,OBJECT_TYPE,EPOCH,MEAN_MOTION,ECCENTRICITY,INCLINATION,RA_OF_ASC_NODE,ARG_OF_PERICENTER,MEAN_ANOMALY,BSTAR,MEAN_MOTION_DOT,MEAN_MOTION_DDOT,TLE_LINE0,TLE_LINE1,TLE_LINE2,SEMIMAJOR_AXIS,PERIOD,APOGEE,PERIGEE,DECAYED
53149.0,STARLINK-4021,PAYLOAD,2023-03-11 10:03:25,15.08855371,0.0001264,53.2185,36.4915,67.5516,292.561,0.002935,0.00046752,0.0,0 STARLINK-4021,1 53149U 22083T   23070.41904543  .00046752  00000-0  29350-2 0  9994,2 53149  53.2185  36.4915 0001264  67.5516 292.5610 15.08855371 36792,6917.833,95.437,540.573,538.824,0.0
53149.0,STARLINK-4021,PAYLOAD,2023-03-12 09:54:12,15.08889626,0.0001066,53.2183,32.031,86.9205,273.1909,0.0029369,0.00046827,0.0,0 STARLINK-4021,1 53149U 22083T   23071.41264024  .00046827  00000-0  29369-2 0  9991,2 53149  53.2183  32.0310 0001066  86.9205 273.1909 15.08889626 36944,6917.729,95.434,540.331,538.856,0.0
53149.0,STARLINK-4021,PAYLOAD,2023-03-12 21:01:54,15.08833273,9.71e-05,53.2194,29.951,96.2559,263.8544,0.00042842,6.536e-05,0.0,0 STARLINK-4021,1 53149U 22083T   23071.87632831  .00006536  00000-0  42842-3 0  9991,2 53149  53.2194  29.9510 0000971  96.2559 263.8544 15.08833273 37010,6917.901,95.438,540.438,539.094,0.0
53149.0,STARLINK-4021,PAYLOAD,2023-03-13 00:12:41,15.08836624,0.0001771,53.2187,29.3542,127.7037,232.4116,0.0019866,0.00031468,0.0,0 STARLINK-4021,1 53149U 22083T   23072.00880951  .00031468  00000-0  19866-2 0  9996,2 53149  53.2187  29.3542 0001771 127.7037 232.4116 15.08836624 37033,6917.891,95.438,540.981,538.531,0.0
53149.0,STARLINK-4021,PAYLOAD,2023-03-13 01:48:04,15.08855908,0.0001131,53.2204,29.055,127.5103,232.5993,0.0018184,0.00028783,0.0,0 STARLINK-4021,1 53149U 22083T   23072.07504875  .00028783  00000-0  18184-2 0  9999,2 53149  53.2204  29.0550 0001131 127.5103 232.5993 15.08855908 36412,6917.832,95.437,540.479,538.914,0.0
53149.0,STARLINK-4021,PAYLOAD,2023-03-14 03:14:14,15.08852036,0.0002049,53.22,24.3003,135.9948,224.1207,0.00068464,0.00010628,0.0,0 STARLINK-4021,1 53149U 22083T   23073.13489063  .00010628  00000-0  68464-3 0  9994,2 53149  53.2200  24.3003 0002049 135.9948 224.1207 15.08852036 37200,6917.844,95.437,541.126,538.291,0.0
53149.0,STARLINK-4021,PAYLOAD,2023-03-14 06:25:00,15.08853714,0.0001797,53.2193,23.7026,127.5168,232.5987,0.0009621,0.00015063,0.0,0 STARLINK-4021,1 53149U 22083T   23073.26737028  .00015063  00000-0  96210-3 0  9993,2 53149  53.2193  23.7026 0001797 127.5168 232.5987 15.08853714 36592,6917.838,95.437,540.947,538.46,0.0
53149.0,STARLINK-4021,PAYLOAD,2023-03-15 06:15:46,15.08887486,0.0001453,53.2188,19.2453,102.9672,257.1482,0.0015594,0.00024649,0.0,0 STARLINK-4021,1 53149U 22083T   23074.26095951  .00024649  00000-0  15594-2 0  9991,2 53149  53.2188  19.2453 0001453 102.9672 257.1482 15.08887486 37379,6917.735,95.435,540.605,538.595,0.0
53149.0,STARLINK-4021,PAYLOAD,2023-03-15 20:34:15,15.08841029,0.0001144,53.22,16.5699,105.3968,254.7151,-8.1489e-05,-1.585e-05,0.0,0 STARLINK-4021,1 53149U 22083T   23074.85712192 -.00001585  00000-0 -81489-4 0  9993,2 53149  53.2200  16.5699 0001144 105.3968 254.7151 15.08841029 37467,6917.877,95.437,540.534,538.951,0.0
53149.0,STARLINK-4021,PAYLOAD,2023-03-16 02:55:48,15.08853344,8.12e-05,53.2191,15.381,107.8302,252.2779,0.00071906,0.00011179,0.0,0 STARLINK-4021,1 53149U 22083T   23075.12208430  .00011179  00000-0  71906-3 0  9999,2 53149  53.2191  15.3810 0000812 107.8302 252.2779 15.08853344 37505,6917.84,95.437,540.266,539.143,0.0
53149.0,STARLINK-4021,PAYLOAD,2023-03-16 20:25:02,15.08828963,0.0001054,53.2183,12.1086,78.071,282.0401,0.00080411,0.00012529,0.0,0 STARLINK-4021,1 53149U 22083T   23075.85072909  .00012529  00000-0  80411-3 0  9990,2 53149  53.2183  12.1086 0001054  78.0710 282.0401 15.08828963 37611,6917.914,95.438,540.508,539.05,0.0
53149.0,STARLINK-4021,PAYLOAD,2023-03-17 12:18:54,15.08825352,0.0001019,53.2188,9.1355,71.9629,288.1474,0.00032884,4.947e-05,0.0,0 STARLINK-4021,1 53149U 22083T   23076.51313355  .00004947  00000-0  32884-3 0  9993,2 53149  53.2188   9.1355 0001019  71.9629 288.1474 15.08825352 37710,6917.925,95.438,540.495,539.085,0.0
53149.0,STARLINK-4021,PAYLOAD,2023-03-18 12:09:41,15.08842172,0.0001388,53.2171,4.6749,65.2319,294.8818,0.00030175,4.518e-05,0.0,0 STARLINK-4021,1 53149U 22083T   23077.50673365  .00004518  00000-0  30175-3 0  9998,2 53149  53.2171   4.6749 0001388  65.2319 294.8818 15.08842172 37861,6917.874,95.437,540.699,538.779,0.0
53149.0,STARLINK-4021,PAYLOAD,2023-03-19 12:00:28,15.08844156,0.0001141,53.2173,0.2146,76.0323,284.0796,0.00022836,3.349e-05,0.0,0 STARLINK-4021,1 53149U 22083T   23078.50033198  .00003349  00000-0  22836-3 0  9999,2 53149  53.2173   0.2146 0001141  76.0323 284.0796 15.08844156 37385,6917.868,95.437,540.522,538.943,0.0
53149.0,STARLINK-4021,PAYLOAD,2023-03-20 02:18:56,15.08848265,0.0001082,53.2173,357.5365,82.1726,277.9389,0.00017122,2.439e-05,0.0,0 STARLINK-4021,1 53149U 22083T   23079.09649071  .00002439  00000-0  17122-3 0  9998,2 53149  53.2173 357.5365 0001082  82.1726 277.9389 15.08848265 37479,6917.855,95.437,540.469,538.972,0.0
53149.0,STARLINK-4021,PAYLOAD,2023-03-21 03:45:06,15.08855592,0.0001267,53.2183,352.7812,83.1138,276.9998,0.00036765,5.571e-05,0.0,0 STARLINK-4021,1 53149U 22083T   23080.15632812  .00005571  00000-0  36765-3 0  9996,2 53149  53.2183 352.7812 0001267  83.1138 276.9998 15.08855592 38261,6917.833,95.437,540.574,538.821,0.0
53149.0,STARLINK-4021,PAYLOAD,2023-03-21 21:14:21,15.08840976,0.000112,53.2178,349.5093,99.2485,260.8634,0.00016327,2.312e-05,0.0,0 STARLINK-4021,1 53149U 22083T   23080.88497363  .00002312  00000-0  16327-3 0  9998,2 53149  53.2178 349.5093 0001120  99.2485 260.8634 15.08840976 37742,6917.877,95.437,540.517,538.968,0.0
53149.0,STARLINK-4021,PAYLOAD,2023-03-22 02:00:31,15.08848246,0.0001245,53.2178,348.6177,105.4252,254.6878,0.00098611,0.00015444,0.0,0 STARLINK-4021,1 53149U 22083T   23081.08369444  .00015444  00000-0  98611-3 0  9995,2 53149  53.2178 348.6177 0001245 105.4252 254.6878 15.08848246 38408,6917.855,95.437,540.581,538.859,0.0
53149.0,STARLINK-4021,PAYLOAD,2023-03-22 05:11:17,15.08859944,0.000134,53.218,348.0228,116.8886,243.2243,0.0014686,0.00023175,0.0,0 STARLINK-4021,1 53149U 22083T   23081.21617186  .00023175  00000-0  14686-2 0  9998,2 53149  53.2180 348.0228 0001340 116.8886 243.2243 15.08859944 38426,6917.819,95.436,540.611,538.757,0.0
53149.0,STARLINK-4021,PAYLOAD,2023-03-22 21:05:08,15.08842439,0.0001194,53.2188,345.0504,103.634,256.4785,0.00086792,0.00013553,0.0,0 STARLINK-4021,1 53149U 22083T   23081.87857542  .00013553  00000-0  86792-3 0  9999,2 53149  53.2188 345.0504 0001194 103.6340 256.4785 15.08842439 37892,6917.873,95.437,540.564,538.912,0.0
53149.0,STARLINK-4021,PAYLOAD,2023-03-23 03:26:41,15.08859433,0.0001419,53.2185,343.8593,113.8768,246.2373,0.001356,0.0002137,0.0,0 STARLINK-4021,1 53149U 22083T   23082.14353181  .00021370  00000-0  13560-2 0  9998,2 53149  53.2185 343.8593 0001419 113.8768 246.2373 15.08859433 38567,6917.821,95.436,540.668,538.704,0.0
53149.0,STARLINK-4021,PAYLOAD,2023-03-23 20:55:56,15.08842372,0.0002304,53.2172,340.5812,133.6078,226.5106,0.0011746,0.00018457,0.0,0 STARLINK-4021,1 53149U 22083T   23082.87217716  .00018457  00000-0  11746-2 0  9997,2 53149  53.2172 340.5812 0002304 133.6078 226.5106 15.08842372 38670,6917.873,95.437,541.332,538.144,0.0
53149.0,STARLINK-4021,PAYLOAD,2023-03-23 22:31:19,15.08845994,0.0001143,53.2175,340.2904,86.848,273.2643,0.0013303,0.00020951,0.0,0 STARLINK-4021,1 53149U 22083T   23082.93841955  .00020951  00000-0  13303-2 0  9995,2 53149  53.2175 340.2904 0001143  86.8480 273.2643 15.08845994 38058,6917.862,95.437,540.518,538.936,0.0
53149.0,STARLINK-4021,PAYLOAD,2023-03-24 01:42:05,15.08873757,0.0001036,53.2175,339.6961,77.8163,282.2945,0.002916,0.00046469,0.0,0 STARLINK-4021,1 53149U 22083T   23083.07089665  .00046469  00000-0  29160-2 0  9993,2 53149  53.2175 339.6961 0001036  77.8163 282.2945 15.08873757 38707,6917.777,95.435,540.359,538.926,0.0
53149.0,STARLINK-4021,PAYLOAD,2023-03-24 20:46:41,15.0889931,0.0001838,53.2166,336.1276,116.5366,243.5815,0.0021238,0.0003373,0.0,0 STARLINK-4021,1 53149U 22083T   23083.86576133  .00033730  00000-0  21238-2 0  9996,2 53149  53.2166 336.1276 0001838 116.5366 243.5815 15.08899310 38826,6917.699,95.434,540.836,538.293,0.0
53149.0,STARLINK-4021,PAYLOAD,2023-03-24 22:22:04,15.0889771,0.0001441,53.2166,335.8301,89.9454,270.1703,0.0020299,0.00032217,0.0,0 STARLINK-4021,1 53149U 22083T   23083.93200032  .00032217  00000-0  20299-2 0  9991,2 53149  53.2166 335.8301 0001441  89.9454 270.1703 15.08897710 38208,6917.704,95.434,540.566,538.572,0.0
53149.0,STARLINK-4021,PAYLOAD,2023-03-25 20:37:30,15.0879729,0.0001178,53.2164,331.6676,95.2849,264.8278,0.0004055,6.164e-05,0.0,0 STARLINK-4021,1 53149U 22083T   23084.85937754  .00006164  00000-0  40550-3 0  9996,2 53149  53.2164 331.6676 0001178  95.2849 264.8278 15.08797290 38973,6918.011,95.44,540.691,539.061,0.0
53149.0,STARLINK-4021,PAYLOAD,2023-03-25 22:12:53,15.08792691,0.0001256,53.2163,331.3701,113.7084,246.404,0.00059354,9.159e-05,0.0,0 STARLINK-4021,1 53149U 22083T   23084.92561961  .00009159  00000-0  59354-3 0  9996,2 53149  53.2163 331.3701 0001256 113.7084 246.4040 15.08792691 38357,6918.025,95.441,540.759,539.021,0.0
53149.0,STARLINK-4021,PAYLOAD,2023-03-26 02:59:03,15.08791397,0.0001514,53.2166,330.477,78.0362,282.08,-0.00036309,-6.054e-05,0.0,0 STARLINK-4021,1 53149U 22083T   23085.12434859 -.00006054  00000-0 -36309-3 0  9992,2 53149  53.2166 330.4770 0001514  78.0362 282.0800 15.08791397 39011,6918.029,95.441,540.941,538.847,0.0
53149.0,STARLINK-4021,PAYLOAD,2023-03-26 20:28:18,15.0880642,0.0001209,53.2165,327.2084,87.994,272.1191,0.00070579,0.00010952,0.0,0 STARLINK-4021,1 53149U 22083T   23085.85299758  .00010952  00000-0  70579-3 0  9996,2 53149  53.2165 327.2084 0001209  87.9940 272.1191 15.08806420 39123,6917.983,95.44,540.684,539.012,0.0
